STARLINK-32102          
1 59699U 24086T   25227.46046736  .00001375  00000+0  59470-4 0  9996
2 59699  42.9993 144.4315 0001594 264.8626  95.2043 15.27583639 72574
STARLINK-32092          
1 59700U 24086U   25227.15152796 -.00000346  00000+0 -30486-5 0  9995
2 59700  43.0028 146.4088 0001053 286.5639  73.5097 15.27581469 72524
STARLINK-32093          
1 59701U 24086V   25226.82203091  .00002384  00000+0  96164-4 0  9990
2 59701  43.0038 148.2335 0001121 272.1994  87.8729 15.27566813 72472
STARLINK-32087          
1 59702U 24086W   25227.46432830 -.00000986  00000+0 -26297-4 0  9995
2 59702  43.0032 144.4582 0001507 265.7985  94.2695 15.27576788 72572
STARLINK-32086          
1 59703U 24086X   25227.11940530  .00001258  00000+0  55215-4 0  9992
2 59703  43.0009 146.1747 0001442 286.0667  74.0026 15.27584583 72521
STARLINK-32098          
1 59704U 24086Y   25227.48618007  .00000931  00000+0  43370-4 0  9990
2 59704  43.0004 144.6298 0000689 286.3830  73.6945 15.27564688 72572
STARLINK-11107 [DTC]    
1 59708U 24088A   25227.50993872 -.00002471  00000+0 -15554-4 0  9991
2 59708  53.1585 262.3578 0000934  70.5222 289.5897 15.69695967 73871
STARLINK-11088 [DTC]    
1 59709U 24088B   25227.43654644 -.00018432  00000+0 -14777-3 0  9994
2 59709  53.1574 263.3320 0001258  96.4137 263.7024 15.69684245 73871
STARLINK-11092 [DTC]    
1 59710U 24088C   25227.36797367 -.00000554  00000+0  28665-6 0  9997
2 59710  53.1592 263.6163 0001106  77.0828 283.0313 15.69702769 73862
STARLINK-11082 [DTC]    
1 59711U 24088D   25227.36306746  .00000032  00000+0  51258-5 0  9998
2 59711  53.1591 263.5827 0001121  76.7632 283.3511 15.69704873 73865
STARLINK-11108 [DTC]    
1 59712U 24088E   25227.35816425 -.00000300  00000+0  23802-5 0  9991
2 59712  53.1587 263.5501 0000810  80.7267 279.3843 15.69704376 73864
STARLINK-11100 [DTC]    
1 59713U 24088F   25227.41692970 -.00000246  00000+0  28364-5 0  9993
2 59713  53.1600 263.2028 0001486  67.3695 292.7480 15.69699864 73870
STARLINK-11094 [DTC]    
1 59714U 24088G   25227.41202283 -.00003966  00000+0 -27912-4 0  9998
2 59714  53.1582 263.1781 0000994  84.3310 275.7821 15.69693524 73878
STARLINK-11101 [DTC]    
1 59715U 24088H   25227.40220977  .00000373  00000+0  79437-5 0  9995
2 59715  53.1585 263.1035 0001173  68.1854 291.9289 15.69702308 73876
STARLINK-11099 [DTC]    
1 59716U 24088J   25227.34344824 -.00000967  00000+0 -31234-5 0  9991
2 59716  53.1600 263.4504 0001266  69.2924 290.8229 15.69700633 73862
STARLINK-11084 [DTC]    
1 59717U 24088K   25227.46097210  .00000041  00000+0  51948-5 0  9994
2 59717  53.1588 262.7572 0001047  75.1549 284.9585 15.69706463 73889
