[{"OBJECT_NAME":"STARLINK-32102","OBJECT_ID":"2024-086T","EPOCH":"2025-08-15T11:03:04.379904","MEAN_MOTION":15.27583639,"ECCENTRICITY":0.0001594,"INCLINATION":42.9993,"RA_OF_ASC_NODE":144.4315,"ARG_OF_PERICENTER":264.8626,"MEAN_ANOMALY":95.2043,"EPHEMERIS_TYPE":0,"CLASSIFICATION_TYPE":"U","NORAD_CAT_ID":59699,"ELEMENT_SET_NO":999,"REV_AT_EPOCH":7257,"BSTAR":5.947e-5,"MEAN_MOTION_DOT":1.375e-5,"MEAN_MOTION_DDOT":0},{"OBJECT_NAME":"STARLINK-32092","OBJECT_ID":"2024-086U","EPOCH":"2025-08-15T03:38:12.015744","MEAN_MOTION":15.27581469,"ECCENTRICITY":0.0001053,"INCLINATION":43.0028,"RA_OF_ASC_NODE":146.4088,"ARG_OF_PERICENTER":286.5639,"MEAN_ANOMALY":73.5097,"EPHEMERIS_TYPE":0,"CLASSIFICATION_TYPE":"U","NORAD_CAT_ID":59700,"ELEMENT_SET_NO":999,"REV_AT_EPOCH":7252,"BSTAR":-3.0486e-6,"MEAN_MOTION_DOT":-3.46e-6,"MEAN_MOTION_DDOT":0},{"OBJECT_NAME":"STARLINK-32093","OBJECT_ID":"2024-086V","EPOCH":"2025-08-14T19:43:43.470624","MEAN_MOTION":15.27566813,"ECCENTRICITY":0.0001121,"INCLINATION":43.0038,"RA_OF_ASC_NODE":148.2335,"ARG_OF_PERICENTER":272.1994,"MEAN_ANOMALY":87.8729,"EPHEMERIS_TYPE":0,"CLASSIFICATION_TYPE":"U","NORAD_CAT_ID":59701,"ELEMENT_SET_NO":999,"REV_AT_EPOCH":7247,"BSTAR":9.6164e-5,"MEAN_MOTION_DOT":2.384e-5,"MEAN_MOTION_DDOT":0},{"OBJECT_NAME":"STARLINK-32087","OBJECT_ID":"2024-086W","EPOCH":"2025-08-15T11:08:37.965120","MEAN_MOTION":15.27576788,"ECCENTRICITY":0.0001507,"INCLINATION":43.0032,"RA_OF_ASC_NODE":144.4582,"ARG_OF_PERICENTER":265.7985,"MEAN_ANOMALY":94.2695,"EPHEMERIS_TYPE":0,"CLASSIFICATION_TYPE":"U","NORAD_CAT_ID":59702,"ELEMENT_SET_NO":999,"REV_AT_EPOCH":7257,"BSTAR":-2.6297e-5,"MEAN_MOTION_DOT":-9.86e-6,"MEAN_MOTION_DDOT":0},{"OBJECT_NAME":"STARLINK-32086","OBJECT_ID":"2024-086X","EPOCH":"2025-08-15T02:51:56.617920","MEAN_MOTION":15.27584583,"ECCENTRICITY":0.0001442,"INCLINATION":43.0009,"RA_OF_ASC_NODE":146.1747,"ARG_OF_PERICENTER":286.0667,"MEAN_ANOMALY":74.0026,"EPHEMERIS_TYPE":0,"CLASSIFICATION_TYPE":"U","NORAD_CAT_ID":59703,"ELEMENT_SET_NO":999,"REV_AT_EPOCH":7252,"BSTAR":5.5215e-5,"MEAN_MOTION_DOT":1.258e-5,"MEAN_MOTION_DDOT":0},{"OBJECT_NAME":"STARLINK-32098","OBJECT_ID":"2024-086Y","EPOCH":"2025-08-15T11:40:05.958048","MEAN_MOTION":15.27564688,"ECCENTRICITY":6.89e-5,"INCLINATION":43.0004,"RA_OF_ASC_NODE":144.6298,"ARG_OF_PERICENTER":286.383,"MEAN_ANOMALY":73.6945,"EPHEMERIS_TYPE":0,"CLASSIFICATION_TYPE":"U","NORAD_CAT_ID":59704,"ELEMENT_SET_NO":999,"REV_AT_EPOCH":7257,"BSTAR":4.337e-5,"MEAN_MOTION_DOT":9.31e-6,"MEAN_MOTION_DDOT":0},{"OBJECT_NAME":"STARLINK-11107 [DTC]","OBJECT_ID":"2024-088A","EPOCH":"2025-08-15T12:14:18.705408","MEAN_MOTION":15.69695967,"ECCENTRICITY":9.34e-5,"INCLINATION":53.1585,"RA_OF_ASC_NODE":262.3578,"ARG_OF_PERICENTER":70.5222,"MEAN_ANOMALY":289.5897,"EPHEMERIS_TYPE":0,"CLASSIFICATION_TYPE":"U","NORAD_CAT_ID":59708,"ELEMENT_SET_NO":999,"REV_AT_EPOCH":7387,"BSTAR":-1.5554e-5,"MEAN_MOTION_DOT":-2.471e-5,"MEAN_MOTION_DDOT":0},{"OBJECT_NAME":"STARLINK-11088 [DTC]","OBJECT_ID":"2024-088B","EPOCH":"2025-08-15T10:28:37.612416","MEAN_MOTION":15.69684245,"ECCENTRICITY":0.0001258,"INCLINATION":53.1574,"RA_OF_ASC_NODE":263.332,"ARG_OF_PERICENTER":96.4137,"MEAN_ANOMALY":263.7024,"EPHEMERIS_TYPE":0,"CLASSIFICATION_TYPE":"U","NORAD_CAT_ID":59709,"ELEMENT_SET_NO":999,"REV_AT_EPOCH":7387,"BSTAR":-0.00014777,"MEAN_MOTION_DOT":-0.00018432,"MEAN_MOTION_DDOT":0},{"OBJECT_NAME":"STARLINK-11092 [DTC]","OBJECT_ID":"2024-088C","EPOCH":"2025-08-15T08:49:52.925088","MEAN_MOTION":15.69702769,"ECCENTRICITY":0.0001106,"INCLINATION":53.1592,"RA_OF_ASC_NODE":263.6163,"ARG_OF_PERICENTER":77.0828,"MEAN_ANOMALY":283.0313,"EPHEMERIS_TYPE":0,"CLASSIFICATION_TYPE":"U","NORAD_CAT_ID":59710,"ELEMENT_SET_NO":999,"REV_AT_EPOCH":7386,"BSTAR":2.8665e-7,"MEAN_MOTION_DOT":-5.54e-6,"MEAN_MOTION_DDOT":0},{"OBJECT_NAME":"STARLINK-11082 [DTC]","OBJECT_ID":"2024-088D","EPOCH":"2025-08-15T08:42:49.028544","MEAN_MOTION":15.69704873,"ECCENTRICITY":0.0001121,"INCLINATION":53.1591,"RA_OF_ASC_NODE":263.5827,"ARG_OF_PERICENTER":76.7632,"MEAN_ANOMALY":283.3511,"EPHEMERIS_TYPE":0,"CLASSIFICATION_TYPE":"U","NORAD_CAT_ID":59711,"ELEMENT_SET_NO":999,"REV_AT_EPOCH":7386,"BSTAR":5.1258e-6,"MEAN_MOTION_DOT":3.2e-7,"MEAN_MOTION_DDOT":0},{"OBJECT_NAME":"STARLINK-11108 [DTC]","OBJECT_ID":"2024-088E","EPOCH":"2025-08-15T08:35:45.391200","MEAN_MOTION":15.69704376,"ECCENTRICITY":8.1e-5,"INCLINATION":53.1587,"RA_OF_ASC_NODE":263.5501,"ARG_OF_PERICENTER":80.7267,"MEAN_ANOMALY":279.3843,"EPHEMERIS_TYPE":0,"CLASSIFICATION_TYPE":"U","NORAD_CAT_ID":59712,"ELEMENT_SET_NO":999,"REV_AT_EPOCH":7386,"BSTAR":2.3802e-6,"MEAN_MOTION_DOT":-3.0e-6,"MEAN_MOTION_DDOT":0},{"OBJECT_NAME":"STARLINK-11100 [DTC]","OBJECT_ID":"2024-088F","EPOCH":"2025-08-15T10:00:22.726080","MEAN_MOTION":15.69699864,"ECCENTRICITY":0.0001486,"INCLINATION":53.16,"RA_OF_ASC_NODE":263.2028,"ARG_OF_PERICENTER":67.3695,"MEAN_ANOMALY":292.748,"EPHEMERIS_TYPE":0,"CLASSIFICATION_TYPE":"U","NORAD_CAT_ID":59713,"ELEMENT_SET_NO":999,"REV_AT_EPOCH":7387,"BSTAR":2.8364e-6,"MEAN_MOTION_DOT":-2.46e-6,"MEAN_MOTION_DDOT":0},{"OBJECT_NAME":"STARLINK-11094 [DTC]","OBJECT_ID":"2024-088G","EPOCH":"2025-08-15T09:53:18.772512","MEAN_MOTION":15.69693524,"ECCENTRICITY":9.94e-5,"INCLINATION":53.1582,"RA_OF_ASC_NODE":263.1781,"ARG_OF_PERICENTER":84.331,"MEAN_ANOMALY":275.7821,"EPHEMERIS_TYPE":0,"CLASSIFICATION_TYPE":"U","NORAD_CAT_ID":59714,"ELEMENT_SET_NO":999,"REV_AT_EPOCH":7387,"BSTAR":-2.7912e-5,"MEAN_MOTION_DOT":-3.966e-5,"MEAN_MOTION_DDOT":0},{"OBJECT_NAME":"STARLINK-11101 [DTC]","OBJECT_ID":"2024-088H","EPOCH":"2025-08-15T09:39:10.924128","MEAN_MOTION":15.69702308,"ECCENTRICITY":0.0001173,"INCLINATION":53.1585,"RA_OF_ASC_NODE":263.1035,"ARG_OF_PERICENTER":68.1854,"MEAN_ANOMALY":291.9289,"EPHEMERIS_TYPE":0,"CLASSIFICATION_TYPE":"U","NORAD_CAT_ID":59715,"ELEMENT_SET_NO":999,"REV_AT_EPOCH":7387,"BSTAR":7.9437e-6,"MEAN_MOTION_DOT":3.73e-6,"MEAN_MOTION_DDOT":0},{"OBJECT_NAME":"STARLINK-11099 [DTC]","OBJECT_ID":"2024-088J","EPOCH":"2025-08-15T08:14:33.927936","MEAN_MOTION":15.69700633,"ECCENTRICITY":0.0001266,"INCLINATION":53.16,"RA_OF_ASC_NODE":263.4504,"ARG_OF_PERICENTER":69.2924,"MEAN_ANOMALY":290.8229,"EPHEMERIS_TYPE":0,"CLASSIFICATION_TYPE":"U","NORAD_CAT_ID":59716,"ELEMENT_SET_NO":999,"REV_AT_EPOCH":7386,"BSTAR":-3.1234e-6,"MEAN_MOTION_DOT":-9.67e-6,"MEAN_MOTION_DDOT":0},{"OBJECT_NAME":"STARLINK-11084 [DTC]","OBJECT_ID":"2024-088K","EPOCH":"2025-08-15T11:03:47.989440","MEAN_MOTION":15.69706463,"ECCENTRICITY":0.0001047,"INCLINATION":53.1588,"RA_OF_ASC_NODE":262.7572,"ARG_OF_PERICENTER":75.1549,"MEAN_ANOMALY":284.9585,"EPHEMERIS_TYPE":0,"CLASSIFICATION_TYPE":"U","NORAD_CAT_ID":59717,"ELEMENT_SET_NO":999,"REV_AT_EPOCH":7388,"BSTAR":5.1948e-6,"MEAN_MOTION_DOT":4.1e-7,"MEAN_MOTION_DDOT":0}]
